OBJECT C                
1 57582U 23117C   24243.20073713  .00012391  00000+0  61614-3 0  9995
2 57582  97.4819 314.3069 0011029  43.9119 316.2989 15.17722439 58409
